<?xml version="1.0" encoding="UTF-8"?>
<kml xmlns="http://www.opengis.net/kml/2.2">
  <Document>
    <name>file_kml_003</name>
    <Style id="line-01579B-7781-nodesc-normal">
      <LineStyle>
        <color>ff9b5701</color>
        <width>7.781</width>
      </LineStyle>
      <BalloonStyle>
        <text><![CDATA[<h3>$[name]</h3>]]></text>
      </BalloonStyle>
    </Style>
    <Style id="line-01579B-7781-nodesc-highlight">
      <LineStyle>
        <color>ff9b5701</color>
        <width>11.6715</width>
      </LineStyle>
      <BalloonStyle>
        <text><![CDATA[<h3>$[name]</h3>]]></text>
      </BalloonStyle>
    </Style>
    <StyleMap id="line-01579B-7781-nodesc">
      <Pair>
        <key>normal</key>
        <styleUrl>#line-01579B-7781-nodesc-normal</styleUrl>
      </Pair>
      <Pair>
        <key>highlight</key>
        <styleUrl>#line-01579B-7781-nodesc-highlight</styleUrl>
      </Pair>
    </StyleMap>
    <Style id="line-01579B-8169-normal">
      <LineStyle>
        <color>ff9b5701</color>
        <width>8.169</width>
      </LineStyle>
    </Style>
    <Style id="line-01579B-8169-highlight">
      <LineStyle>
        <color>ff9b5701</color>
        <width>12.2535</width>
      </LineStyle>
    </Style>
    <StyleMap id="line-01579B-8169">
      <Pair>
        <key>normal</key>
        <styleUrl>#line-01579B-8169-normal</styleUrl>
      </Pair>
      <Pair>
        <key>highlight</key>
        <styleUrl>#line-01579B-8169-highlight</styleUrl>
      </Pair>
    </StyleMap>
    <Style id="line-097138-4875-normal">
      <LineStyle>
        <color>ff387109</color>
        <width>4.875</width>
      </LineStyle>
    </Style>
    <Style id="line-097138-4875-highlight">
      <LineStyle>
        <color>ff387109</color>
        <width>7.3125</width>
      </LineStyle>
    </Style>
    <StyleMap id="line-097138-4875">
      <Pair>
        <key>normal</key>
        <styleUrl>#line-097138-4875-normal</styleUrl>
      </Pair>
      <Pair>
        <key>highlight</key>
        <styleUrl>#line-097138-4875-highlight</styleUrl>
      </Pair>
    </StyleMap>
    <Style id="line-F57C00-6619-normal">
      <LineStyle>
        <color>ff007cf5</color>
        <width>6.619</width>
      </LineStyle>
    </Style>
    <Style id="line-F57C00-6619-highlight">
      <LineStyle>
        <color>ff007cf5</color>
        <width>9.9285</width>
      </LineStyle>
    </Style>
    <StyleMap id="line-F57C00-6619">
      <Pair>
        <key>normal</key>
        <styleUrl>#line-F57C00-6619-normal</styleUrl>
      </Pair>
      <Pair>
        <key>highlight</key>
        <styleUrl>#line-F57C00-6619-highlight</styleUrl>
      </Pair>
    </StyleMap>
    <Placemark>
      <name>Vành đai 3</name>
      <description>Đang hoàn tất đền bù, một vài đoạn đã thi công xong.</description>
      <styleUrl>#line-097138-4875</styleUrl>
      <LineString>
        <tessellate>1</tessellate>
        <coordinates>
          106.8605611,10.6737553,0
          106.8607757,10.6771923,0
          106.859381,10.6858165,0
          106.8548749,10.6982567,0
          106.8516133,10.7046664,0
          106.8535874,10.7172323,0
          106.8511841,10.7384836,0
          106.8495534,10.752566,0
          106.8395112,10.7661418,0
          106.8302415,10.7786209,0
          106.8282674,10.786125,0
          106.8297265,10.8051794,0
          106.8293831,10.8217878,0
          106.8401978,10.8438326,0
          106.8413136,10.8483003,0
          106.841142,10.8545382,0
          106.8383739,10.8778238,0
          106.8359707,10.8873904,0
          106.8303917,10.8967038,0
          106.8283317,10.8978417,0
        </coordinates>
      </LineString>
    </Placemark>
    <Placemark>
      <name>Cao tốc Bến Lức - Long Thành</name>
      <styleUrl>#line-01579B-7781-nodesc</styleUrl>
      <LineString>
        <tessellate>1</tessellate>
        <coordinates>
          106.5487988,10.6700736,0
          106.5632835,10.6586658,0
          106.5700863,10.6551023,0
          106.5799153,10.6530359,0
          106.5893378,10.652656,0
          106.6011448,10.6542573,0
          106.6172058,10.6564463,0
          106.6303594,10.6567786,0
          106.6661079,10.6576111,0
          106.6812785,10.6581172,0
          106.6901191,10.6605634,0
          106.707371,10.667733,0
          106.7199882,10.6658773,0
          106.7677958,10.6497665,0
          106.773289,10.6490073,0
          106.7773231,10.6493447,0
          106.7823012,10.6511161,0
          106.7933734,10.6605634,0
          106.8084796,10.6749867,0
          106.8150027,10.6779388,0
          106.8313964,10.6766736,0
          106.8459876,10.6739746,0
          106.875685,10.6727094,0
          106.9216044,10.657105,0
          106.9331916,10.6538153,0
          106.945637,10.653984,0
          106.9559367,10.6558398,0
          106.9706996,10.6628408,0
          106.990784,10.6733842,0
          106.9988521,10.6771797,0
          107.0091517,10.6780232,0
          107.029322,10.6731311,0
          107.0402317,10.6762542,0
          107.0600586,10.6761488,0
        </coordinates>
      </LineString>
    </Placemark>
    <Placemark>
      <name>Cao tốc Biên Hòa - Vũng Tàu</name>
      <description>Phía Vũng Tàu đã làm nhiều đoạn hoàn chỉnh.</description>
      <styleUrl>#line-01579B-8169</styleUrl>
      <LineString>
        <tessellate>1</tessellate>
        <coordinates>
          107.04717,10.6626356,0
          107.0385011,10.6801797,0
          106.9767192,10.759216,0
          106.9725994,10.7681961,0
          106.9545749,10.8044512,0
          106.9455841,10.8278039,0
          106.9349411,10.8482888,0
          106.9287613,10.8664963,0
          106.9013492,10.8990101,0
        </coordinates>
      </LineString>
    </Placemark>
    <Placemark>
      <name>Đường liên phường</name>
      <description>Bắt đầu thi công 600m đường và cầu nối hai bên dự án</description>
      <styleUrl>#line-F57C00-6619</styleUrl>
      <LineString>
        <tessellate>1</tessellate>
        <coordinates>
          106.7696096,10.8020018,0
          106.7675872,10.8019807,0
          106.7659456,10.8023233,0
          106.7639447,10.8028344,0
        </coordinates>
      </LineString>
    </Placemark>
    <Placemark>
      <name>thuadat 7,800m2</name>
      <description><???></description>
      <styleUrl>#poly-CE93D8-1200-138</styleUrl>    
      <Polygon>
        <outerBoundaryIs>
          <LinearRing>
            <tessellate>1</tessellate>
            <coordinates>
              106.9224027,10.4011108,0
              106.922388,10.4006519,0
              106.922241,10.4006514,0
              106.9222458,10.4005319,0
              106.9221104,10.4005345,0
              106.9221532,10.3998248,0
              106.922679,10.399892,0
              106.9227326,10.3999421,0
              106.9227892,10.3998922,0
              106.9229619,10.399929,0
              106.9229284,10.4002139,0
              106.922683,10.400198,0
              106.9226119,10.4011042,0
              106.9224027,10.4011108,0
            </coordinates>
          </LinearRing>
        </outerBoundaryIs>
      </Polygon>
    </Placemark>
    <Placemark>
      <name>33 ty 600m2</name>
      <description><![CDATA[17.5 x 35.0 dt 600m2 bao gồm 300m2 thổ cư, chưa kiểm tra QH XD></description>
      <styleUrl>#poly-FBC02D-1200-194</styleUrl>
      <Polygon>
        <outerBoundaryIs>
          <LinearRing>
            <tessellate>1</tessellate>
            <coordinates>
              106.9169303,10.3864215,0
              106.9168445,10.3862843,0
              106.9170724,10.3861445,0
              106.9171368,10.3862579,0
              106.9171167,10.3863107,0
              106.9169303,10.3864215,0
            </coordinates>
          </LinearRing>
        </outerBoundaryIs>
      </Polygon>
    </Placemark>
    <Placemark>
      <name>23,7 ty dt887m2</name>
      <description><![CDATA[24, x37m dt 887m2 gồm 379m2 thổ cư, giá 27tr/m2. bị quy hoạch lộ giới 1 phần.></description>
      <styleUrl>#poly-FBC02D-1200-186</styleUrl>
      <Polygon>
        <outerBoundaryIs>
          <LinearRing>
            <tessellate>1</tessellate>
            <coordinates>
              106.9438667,10.4080826,0
              106.9438291,10.4082844,0
              106.9435139,10.4082105,0
              106.9435595,10.4080087,0
              106.9438667,10.4080826,0
            </coordinates>
          </LinearRing>
        </outerBoundaryIs>
      </Polygon>
    </Placemark>
    <Placemark>
      <name>19ty dt764m2</name>
      <description><![CDATA[7,5m, nở hậu 9,8m x 80, • 764m2 đất có sẵn nhà trên đất. Gồm: 569m2 thổ cư, 195 m2 CLN (QH thổ cư có thể chuyển thổ)></description>
      <styleUrl>#poly-FBC02D-1200-194</styleUrl> 
      <Polygon>
        <outerBoundaryIs>
          <LinearRing>
            <tessellate>1</tessellate>
            <coordinates>
              106.9503458,10.4118426,0
              106.9503941,10.411373,0
              106.9504786,10.411377,0
              106.9504343,10.4117344,0
              106.9504061,10.411861,0
              106.9503458,10.4118426,0
            </coordinates>
          </LinearRing>
        </outerBoundaryIs>
      </Polygon>
    </Placemark>
    <Placemark>
      <name>thuadat 2000m2</name>
      <description><![CDATA[bị quy hoạch hơn 80% rồi></description>
      <styleUrl>#poly-4E342E-1200-230</styleUrl>
      <Polygon>
        <outerBoundaryIs>
          <LinearRing>
            <tessellate>1</tessellate>
            <coordinates>
              106.9191934,10.4002254,0
              106.9195368,10.400141,0
              106.9196226,10.4005024,0
              106.91929,10.4005789,0
              106.9191934,10.4002254,0
            </coordinates>
          </LinearRing>
        </outerBoundaryIs>
      </Polygon>
    </Placemark>
    <Placemark>
      <name>42,3ty dt 2600m2</name>
      <description><![CDATA[2600 m2, trong đó 1723m2 thổ cư></description>
      <styleUrl>#poly-CE93D8-1200-235</styleUrl>
      <Polygon>
        <outerBoundaryIs>
          <LinearRing>
            <tessellate>1</tessellate>
            <coordinates>
              106.9212544,10.4006382,0
              106.92141,10.4013004,0
              106.9211177,10.4013822,0
              106.9210761,10.4010735,0
              106.9209286,10.4007358,0
              106.9212544,10.4006382,0
            </coordinates>
          </LinearRing>
        </outerBoundaryIs>
      </Polygon>
    </Placemark>
    <Placemark>
      <name>50 ty dt 995m2</name>
      <description><![CDATA[995m2, thổ cư 922m2.<br>Vị trí đối diện chợ Hòa Hiệp, theo quy hoạch có mở đường ở bên phải đất, thông từ Lương Văn Nho ra khu tái định cư phía sau.></description>
      <styleUrl>#poly-CE93D8-1200-255</styleUrl>
      <Polygon>
        <outerBoundaryIs>
          <LinearRing>
            <tessellate>1</tessellate>
            <coordinates>
              106.923634,10.4023215,0
              106.9235777,10.4027779,0
              106.9233631,10.40277,0
              106.923339,10.4022793,0
              106.923634,10.4023215,0
            </coordinates>
          </LinearRing>
        </outerBoundaryIs>
      </Polygon>
    </Placemark>
    <Placemark>
      <name>16,8ty dt 900m2</name>
      <description><![CDATA[có 800m2 thổ cư></description>
      <styleUrl>#poly-CE93D8-1200-232</styleUrl>
      <Polygon>
        <outerBoundaryIs>
          <LinearRing>
            <tessellate>1</tessellate>
            <coordinates>
              106.9232381,10.4015911,0
              106.9232381,10.4015277,0
              106.9233722,10.4015291,0
              106.9233843,10.4013233,0
              106.9235814,10.4013338,0
              106.9235694,10.4015937,0
              106.9232381,10.4015911,0
            </coordinates>
          </LinearRing>
        </outerBoundaryIs>
      </Polygon>
    </Placemark>
    <Placemark>
      <name>19ty dt 3,800m2</name>
      <description><![CDATA[đất nông nghiệp HNK></description>
      <styleUrl>#poly-CE93D8-1200-176</styleUrl>
      <Polygon>
        <outerBoundaryIs>
          <LinearRing>
            <tessellate>1</tessellate>
            <coordinates>
              106.9246563,10.4010043,0
              106.9246885,10.4002828,0
              106.9253081,10.400317,0
              106.9252491,10.4006969,0
              106.9249594,10.40066,0
              106.9249219,10.4010504,0
              106.9246563,10.4010043,0
            </coordinates>
          </LinearRing>
        </outerBoundaryIs>
      </Polygon>
    </Placemark>
  </Document>
</kml>
