<?xml version="1.0" encoding="UTF-8"?>
<kml xmlns="http://www.opengis.net/kml/2.2">
  <Document>
    <name>file_kml_003_02</name>
    <Style id="line-01579B-7781-nodesc-normal">
      <LineStyle>
        <color>ff9b5701</color>
        <width>3.781</width>
      </LineStyle>
      <BalloonStyle>
        <text><![CDATA[<h3>$[name]</h3>]]></text>
      </BalloonStyle>
    </Style>
    <Style id="line-01579B-7781-nodesc-highlight">
      <LineStyle>
        <color>ff9b5701</color>
        <width>3.6715</width>
      </LineStyle>
      <BalloonStyle>
        <text><![CDATA[<h3>$[name]</h3>]]></text>
      </BalloonStyle>
    </Style>
    <StyleMap id="line-01579B-7781-nodesc">
      <Pair>
        <key>normal</key>
        <styleUrl>#line-01579B-7781-nodesc-normal</styleUrl>
      </Pair>
      <Pair>
        <key>highlight</key>
        <styleUrl>#line-01579B-7781-nodesc-highlight</styleUrl>
      </Pair>
    </StyleMap>
    <Style id="line-01579B-8169-normal">
      <LineStyle>
        <color>ff9b5701</color>
        <width>4.169</width>
      </LineStyle>
    </Style>
    <Style id="line-01579B-8169-highlight">
      <LineStyle>
        <color>ff9b5701</color>
        <width>5.2535</width>
      </LineStyle>
    </Style>
    <StyleMap id="line-01579B-8169">
      <Pair>
        <key>normal</key>
        <styleUrl>#line-01579B-8169-normal</styleUrl>
      </Pair>
      <Pair>
        <key>highlight</key>
        <styleUrl>#line-01579B-8169-highlight</styleUrl>
      </Pair>
    </StyleMap>
    <Style id="line-097138-4875-normal">
      <LineStyle>
        <color>ff387109</color>
        <width>4.875</width>
      </LineStyle>
    </Style>
    <Style id="line-097138-4875-highlight">
      <LineStyle>
        <color>ff387109</color>
        <width>3.3125</width>
      </LineStyle>
    </Style>
    <StyleMap id="line-097138-4875">
      <Pair>
        <key>normal</key>
        <styleUrl>#line-097138-4875-normal</styleUrl>
      </Pair>
      <Pair>
        <key>highlight</key>
        <styleUrl>#line-097138-4875-highlight</styleUrl>
      </Pair>
    </StyleMap>
    <Style id="line-F57C00-6619-normal">
      <LineStyle>
        <color>ff007cf5</color>
        <width>3.619</width>
      </LineStyle>
    </Style>
    <Style id="line-F57C00-6619-highlight">
      <LineStyle>
        <color>ff007cf5</color>
        <width>3.9285</width>
      </LineStyle>
    </Style>
    <StyleMap id="line-F57C00-6619">
      <Pair>
        <key>normal</key>
        <styleUrl>#line-F57C00-6619-normal</styleUrl>
      </Pair>
      <Pair>
        <key>highlight</key>
        <styleUrl>#line-F57C00-6619-highlight</styleUrl>
      </Pair>
    </StyleMap>
    <Style id="poly-CE93D8-1200-176-normal">
      <LineStyle>
        <color>ffd893ce</color>
        <width>1.2</width>
      </LineStyle>
      <PolyStyle>
        <color>b0d893ce</color>
        <fill>1</fill>
        <outline>1</outline>
      </PolyStyle>
    </Style>
    <Style id="poly-CE93D8-1200-176-highlight">
      <LineStyle>
        <color>ffd893ce</color>
        <width>1.8</width>
      </LineStyle>
      <PolyStyle>
        <color>b0d893ce</color>
        <fill>1</fill>
        <outline>1</outline>
      </PolyStyle>
    </Style>
    <StyleMap id="poly-CE93D8-1200-176">
      <Pair>
        <key>normal</key>
        <styleUrl>#poly-CE93D8-1200-176-normal</styleUrl>
      </Pair>
      <Pair>
        <key>highlight</key>
        <styleUrl>#poly-CE93D8-1200-176-highlight</styleUrl>
      </Pair>
    </StyleMap>
    <Placemark>
      <name>19ty dt 3,800m2</name>
      <description>đất nông nghiệp HNK</description>
      <styleUrl>#poly-CE93D8-1200-176</styleUrl>
      <Polygon>
        <outerBoundaryIs>
          <LinearRing>
            <tessellate>1</tessellate>
            <coordinates>
              106.9246563,10.4010043,0
              106.9246885,10.4002828,0
              106.9253081,10.400317,0
              106.9252491,10.4006969,0
              106.9249594,10.40066,0
              106.9249219,10.4010504,0
              106.9246563,10.4010043,0
            </coordinates>
          </LinearRing>
        </outerBoundaryIs>
      </Polygon>
    </Placemark>
    <Placemark>
      <name>xxty dt 2,670 m2</name>
      <description>đất trống đang xác minh</description>
      <styleUrl>#poly-CE93D8-1200-176</styleUrl>
      <Polygon>
        <outerBoundaryIs>
          <LinearRing>
            <tessellate>1</tessellate>
            <coordinates>
              106.93330944388,10.405145417127,0
              106.93307229895,10.405120799086,0
              106.93299205874,10.406169173868,0
              106.93318295333,10.406182028778,0
              106.93330944388,10.405145417127,0
            </coordinates>
          </LinearRing>
        </outerBoundaryIs>
      </Polygon>
    </Placemark>
    <Placemark>
      <name>Vành đai 3</name>
      <description>Đang hoàn tất đền bù, một vài đoạn đã thi công xong.</description>
      <styleUrl>#line-097138-4875</styleUrl>
      <LineString>
        <tessellate>1</tessellate>
        <coordinates>
          106.8605611,10.6737553,0
          106.8607757,10.6771923,0
          106.859381,10.6858165,0
          106.8548749,10.6982567,0
          106.8516133,10.7046664,0
          106.8535874,10.7172323,0
          106.8511841,10.7384836,0
          106.8495534,10.752566,0
          106.8395112,10.7661418,0
          106.8302415,10.7786209,0
          106.8282674,10.786125,0
          106.8297265,10.8051794,0
          106.8293831,10.8217878,0
          106.8401978,10.8438326,0
          106.8413136,10.8483003,0
          106.841142,10.8545382,0
          106.8383739,10.8778238,0
          106.8359707,10.8873904,0
          106.8303917,10.8967038,0
          106.8283317,10.8978417,0
        </coordinates>
      </LineString>
    </Placemark>
    <Placemark>
      <name>Cao tốc Bến Lức - Long Thành</name>
      <styleUrl>#line-01579B-7781-nodesc</styleUrl>
      <LineString>
        <tessellate>1</tessellate>
        <coordinates>
          106.5487988,10.6700736,0
          106.5632835,10.6586658,0
          106.5700863,10.6551023,0
          106.5799153,10.6530359,0
          106.5893378,10.652656,0
          106.6011448,10.6542573,0
          106.6172058,10.6564463,0
          106.6303594,10.6567786,0
          106.6661079,10.6576111,0
          106.6812785,10.6581172,0
          106.6901191,10.6605634,0
          106.707371,10.667733,0
          106.7199882,10.6658773,0
          106.7677958,10.6497665,0
          106.773289,10.6490073,0
          106.7773231,10.6493447,0
          106.7823012,10.6511161,0
          106.7933734,10.6605634,0
          106.8084796,10.6749867,0
          106.8150027,10.6779388,0
          106.8313964,10.6766736,0
          106.8459876,10.6739746,0
          106.875685,10.6727094,0
          106.9216044,10.657105,0
          106.9331916,10.6538153,0
          106.945637,10.653984,0
          106.9559367,10.6558398,0
          106.9706996,10.6628408,0
          106.990784,10.6733842,0
          106.9988521,10.6771797,0
          107.0091517,10.6780232,0
          107.029322,10.6731311,0
          107.0402317,10.6762542,0
          107.0600586,10.6761488,0
        </coordinates>
      </LineString>
    </Placemark>
    <Placemark>
      <name>Cao tốc Biên Hòa - Vũng Tàu</name>
      <description>Phía Vũng Tàu đã làm nhiều đoạn hoàn chỉnh.</description>
      <styleUrl>#line-01579B-8169</styleUrl>
      <LineString>
        <tessellate>1</tessellate>
        <coordinates>
          107.04717,10.6626356,0
          107.0385011,10.6801797,0
          106.9767192,10.759216,0
          106.9725994,10.7681961,0
          106.9545749,10.8044512,0
          106.9455841,10.8278039,0
          106.9349411,10.8482888,0
          106.9287613,10.8664963,0
          106.9013492,10.8990101,0
        </coordinates>
      </LineString>
    </Placemark>
    <Placemark>
      <name>Đường liên phường</name>
      <description>Bắt đầu thi công 600m đường và cầu nối hai bên dự án</description>
      <styleUrl>#line-F57C00-6619</styleUrl>
      <LineString>
        <tessellate>1</tessellate>
        <coordinates>
          106.7696096,10.8020018,0
          106.7675872,10.8019807,0
          106.7659456,10.8023233,0
          106.7639447,10.8028344,0
        </coordinates>
      </LineString>
    </Placemark>
  </Document>
</kml>
